NORAD_CAT_ID,OBJECT_NAME,OBJECT_TYPE,EPOCH,MEAN_MOTION,ECCENTRICITY,INCLINATION,RA_OF_ASC_NODE,ARG_OF_PERICENTER,MEAN_ANOMALY,BSTAR,MEAN_MOTION_DOT,MEAN_MOTION_DDOT,TLE_LINE0,TLE_LINE1,TLE_LINE2,SEMIMAJOR_AXIS,PERIOD,APOGEE,PERIGEE,DECAYED
53855.0,STARLINK-4703,PAYLOAD,2024-04-14 10:00:36,15.08842878,0.0001334,53.2164,170.5731,91.9673,268.1472,0.0001628,2.304e-05,0.0,0 STARLINK-4703,1 53855U 22114AP  24105.41708356  .00002304  00000-0  16280-3 0  9991,2 53855  53.2164 170.5731 0001334  91.9673 268.1472 15.08842878 87623,6917.872,95.437,540.659,538.814,0.0
53855.0,STARLINK-4703,PAYLOAD,2024-04-15 13:02:09,15.08845728,0.0001384,53.2164,165.5195,96.3024,263.8126,0.0001704,2.425e-05,0.0,0 STARLINK-4703,1 53855U 22114AP  24106.54316256  .00002425  00000-0  17040-3 0  9999,2 53855  53.2164 165.5195 0001384  96.3024 263.8126 15.08845728 87798,6917.863,95.437,540.685,538.77,0.0
53855.0,STARLINK-4703,PAYLOAD,2024-04-15 20:59:04,15.08856299,0.0001443,53.2165,164.0316,77.7404,282.3749,0.00026584,3.947e-05,0.0,0 STARLINK-4703,1 53855U 22114AP  24106.87435665  .00003947  00000-0  26584-3 0  9994,2 53855  53.2165 164.0316 0001443  77.7404 282.3749 15.08856299 87847,6917.831,95.437,540.694,538.697,0.0
53855.0,STARLINK-4703,PAYLOAD,2024-04-16 11:17:33,15.08844916,0.0001555,53.2155,161.3604,85.5772,274.5398,0.00015552,2.188e-05,0.0,0 STARLINK-4703,1 53855U 22114AP  24107.47052223  .00002188  00000-0  15552-3 0  9995,2 53855  53.2155 161.3604 0001555  85.5772 274.5398 15.08844916 87931,6917.865,95.437,540.806,538.655,0.0
53855.0,STARLINK-4703,PAYLOAD,2024-04-17 09:32:56,15.08843788,0.0001523,53.2159,157.1935,91.3622,268.7545,0.00010708,1.417e-05,0.0,0 STARLINK-4703,1 53855U 22114AP  24108.39788157  .00001417  00000-0  10708-3 0  9991,2 53855  53.2159 157.1935 0001523  91.3622 268.7545 15.08843788 88610,6917.869,95.437,540.787,538.68,0.0
53855.0,STARLINK-4703,PAYLOAD,2024-04-17 20:40:38,15.0885079,0.0001575,53.2166,155.112,87.0292,273.088,0.00013532,1.867e-05,0.0,0 STARLINK-4703,1 53855U 22114AP  24108.86155772  .00001867  00000-0  13532-3 0  9991,2 53855  53.2166 155.1120 0001575  87.0292 273.0880 15.08850790 88144,6917.847,95.437,540.802,538.623,0.0
53855.0,STARLINK-4703,PAYLOAD,2024-04-18 03:02:12,15.08830041,0.0001761,53.2154,153.9252,83.3369,276.7823,4.0028e-05,3.49e-06,0.0,0 STARLINK-4703,1 53855U 22114AP  24109.12652924  .00000349  00000-0  40028-4 0  9997,2 53855  53.2154 153.9252 0001761  83.3369 276.7823 15.08830041 88182,6917.911,95.438,540.994,538.558,0.0
53855.0,STARLINK-4703,PAYLOAD,2024-04-18 09:23:44,15.08824276,0.000154,53.2163,152.7335,91.3075,268.8093,-0.00019832,-3.441e-05,0.0,0 STARLINK-4703,1 53855U 22114AP  24109.39149089 -.00003441  00000-0 -19832-3 0  9995,2 53855  53.2163 152.7335 0001540  91.3075 268.8093 15.08824276 88767,6917.928,95.439,540.859,538.728,0.0
53855.0,STARLINK-4703,PAYLOAD,2024-04-19 12:25:18,15.08842653,0.0001746,53.2177,147.6753,127.2549,232.8603,0.00037085,5.619e-05,0.0,0 STARLINK-4703,1 53855U 22114AP  24110.51757085  .00005619  00000-0  37085-3 0  9999,2 53855  53.2177 147.6753 0001746 127.2549 232.8603 15.08842653 88398,6917.872,95.437,540.945,538.529,0.0
53855.0,STARLINK-4703,PAYLOAD,2024-04-20 12:16:05,15.08849148,0.0001385,53.2163,143.2165,101.1352,258.9796,0.00032306,4.859e-05,0.0,0 STARLINK-4703,1 53855U 22114AP  24111.51116995  .00004859  00000-0  32306-3 0  9995,2 53855  53.2163 143.2165 0001385 101.1352 258.9796 15.08849148 89089,6917.852,95.437,540.676,538.759,0.0
53855.0,STARLINK-4703,PAYLOAD,2024-04-21 02:34:33,15.08837961,0.0001536,53.2165,140.5392,104.6363,255.4799,-4.8991e-05,-1.068e-05,0.0,0 STARLINK-4703,1 53855U 22114AP  24112.10733238 -.00001068  00000-0 -48991-4 0  9995,2 53855  53.2165 140.5392 0001536 104.6363 255.4799 15.08837961 88636,6917.887,95.438,540.814,538.689,0.0
53855.0,STARLINK-4703,PAYLOAD,2024-04-21 10:31:30,15.08828546,0.0001396,53.2171,139.0528,105.0776,255.0371,-5.4964e-05,-1.162e-05,0.0,0 STARLINK-4703,1 53855U 22114AP  24112.43854498 -.00001162  00000-0 -54964-4 0  9995,2 53855  53.2171 139.0528 0001396 105.0776 255.0371 15.08828546 89221,6917.915,95.438,540.746,538.815,0.0
53855.0,STARLINK-4703,PAYLOAD,2024-04-22 08:46:54,15.08831966,0.0001602,53.2177,134.8837,107.7872,252.3295,-4.6184e-05,-1.023e-05,0.0,0 STARLINK-4703,1 53855U 22114AP  24113.36590932 -.00001023  00000-0 -46184-4 0  9999,2 53855  53.2177 134.8837 0001602 107.7872 252.3295 15.08831966 89369,6917.905,95.438,540.878,538.662,0.0
53855.0,STARLINK-4703,PAYLOAD,2024-04-22 11:57:40,15.0883168,0.0001595,53.218,134.2952,102.8458,257.2712,-3.0355e-05,-7.71e-06,0.0,0 STARLINK-4703,1 53855U 22114AP  24113.49839099 -.00000771  00000-0 -30355-4 0  9995,2 53855  53.2180 134.2952 0001595 102.8458 257.2712 15.08831680 88845,6917.906,95.438,540.874,538.667,0.0
53855.0,STARLINK-4703,PAYLOAD,2024-04-23 10:13:03,15.08846211,0.0001394,53.2171,130.134,94.1588,265.9563,0.00030928,4.638e-05,0.0,0 STARLINK-4703,1 53855U 22114AP  24114.42573749  .00004638  00000-0  30928-3 0  9995,2 53855  53.2171 130.1340 0001394  94.1588 265.9563 15.08846211 88986,6917.861,95.437,540.691,538.762,0.0
53855.0,STARLINK-4703,PAYLOAD,2024-04-24 05:17:38,15.08905176,9.12e-05,53.2164,126.5647,99.9952,260.1143,-0.0013432,-0.00021639,0.0,0 STARLINK-4703,1 53855U 22114AP  24115.22058544 -.00021639  00000-0 -13432-2 0  9997,2 53855  53.2164 126.5647 0000912  99.9952 260.1143 15.08905176 89102,6917.681,95.433,540.177,538.915,0.0
53855.0,STARLINK-4703,PAYLOAD,2024-04-24 10:03:50,15.08846704,0.0001488,53.2165,125.6741,77.0009,283.1149,0.00037393,5.669e-05,0.0,0 STARLINK-4703,1 53855U 22114AP  24115.41933972  .00005669  00000-0  37393-3 0  9991,2 53855  53.2165 125.6741 0001488  77.0009 283.1149 15.08846704 89132,6917.86,95.437,540.754,538.696,0.0
53855.0,STARLINK-4703,PAYLOAD,2024-04-25 06:43:51,15.08846609,0.000144,53.2176,121.8064,93.1758,266.9399,-5.8304e-05,-1.216e-05,0.0,0 STARLINK-4703,1 53855U 22114AP  24116.28045910 -.00001216  00000-0 -58304-4 0  9995,2 53855  53.2176 121.8064 0001440  93.1758 266.9399 15.08846609 89262,6917.86,95.437,540.721,538.729,0.0
53855.0,STARLINK-4703,PAYLOAD,2024-04-26 06:34:38,15.08845567,0.0001409,53.2172,117.3466,94.8511,265.2642,3.5904e-05,2.84e-06,0.0,0 STARLINK-4703,1 53855U 22114AP  24117.27405224  .00000284  00000-0  35904-4 0  9996,2 53855  53.2172 117.3466 0001409  94.8511 265.2642 15.08845567 89955,6917.863,95.437,540.703,538.754,0.0
53855.0,STARLINK-4703,PAYLOAD,2024-04-27 04:50:02,15.08839556,0.0001377,53.2173,113.1837,107.0201,253.0943,8.2141e-05,1.02e-05,0.0,0 STARLINK-4703,1 53855U 22114AP  24118.20141277  .00001020  00000-0  82141-4 0  9999,2 53855  53.2173 113.1837 0001377 107.0201 253.0943 15.08839556 89555,6917.882,95.438,540.699,538.794,0.0
53855.0,STARLINK-4703,PAYLOAD,2024-04-27 09:36:07,15.08886567,0.0001179,53.2172,112.2916,102.9122,257.2002,0.00047086,7.223e-05,0.0,0 STARLINK-4703,1 53855U 22114AP  24118.40009120  .00007223  00000-0  47086-3 0  9990,2 53855  53.2172 112.2916 0001179 102.9122 257.2002 15.08886567 89587,6917.738,95.435,540.419,538.787,0.0
53855.0,STARLINK-4703,PAYLOAD,2024-04-28 06:16:12,15.08827117,0.0001405,53.2169,108.4265,76.911,283.2039,-0.00013791,-2.481e-05,0.0,0 STARLINK-4703,1 53855U 22114AP  24119.26125857 -.00002481  00000-0 -13791-3 0  9990,2 53855  53.2169 108.4265 0001405  76.9110 283.2039 15.08827117 89716,6917.92,95.438,540.757,538.813,0.0
53855.0,STARLINK-4703,PAYLOAD,2024-04-28 09:26:59,15.08826924,0.0001438,53.2169,107.8318,77.848,282.2673,-0.00013677,-2.463e-05,0.0,0 STARLINK-4703,1 53855U 22114AP  24119.39373952 -.00002463  00000-0 -13677-3 0  9998,2 53855  53.2169 107.8318 0001438  77.8480 282.2673 15.08826924 90275,6917.92,95.438,540.78,538.791,0.0
53855.0,STARLINK-4703,PAYLOAD,2024-04-28 15:48:31,15.08828751,0.0001443,53.2174,106.6428,78.5951,281.5203,-0.00011423,-2.105e-05,0.0,0 STARLINK-4703,1 53855U 22114AP  24119.65869816 -.00002105  00000-0 -11423-3 0  9996,2 53855  53.2174 106.6428 0001443  78.5951 281.5203 15.08828751 90313,6917.915,95.438,540.778,538.782,0.0
53855.0,STARLINK-4703,PAYLOAD,2024-04-29 04:31:38,15.08807178,0.0001721,53.2192,104.2668,86.7223,273.3966,-0.00020723,-3.582e-05,0.0,0 STARLINK-4703,1 53855U 22114AP  24120.18864314 -.00003582  00000-0 -20723-3 0  9997,2 53855  53.2192 104.2668 0001721  86.7223 273.3966 15.08807178 89857,6917.981,95.44,541.036,538.655,0.0
53855.0,STARLINK-4703,PAYLOAD,2024-04-29 09:17:48,15.08804863,0.0001573,53.2174,103.3706,75.9371,284.1796,-0.00022874,-3.923e-05,0.0,0 STARLINK-4703,1 53855U 22114AP  24120.38736866 -.00003923  00000-0 -22874-3 0  9997,2 53855  53.2174 103.3706 0001573  75.9371 284.1796 15.08804863 90423,6917.988,95.44,540.941,538.765,0.0
53855.0,STARLINK-4703,PAYLOAD,2024-04-29 15:39:21,15.08809905,0.0001711,53.2187,102.1828,81.4434,278.6752,-0.00018188,-3.179e-05,0.0,0 STARLINK-4703,1 53855U 22114AP  24120.65232917 -.00003179  00000-0 -18188-3 0  9991,2 53855  53.2187 102.1828 0001711  81.4434 278.6752 15.08809905 90461,6917.972,95.439,541.021,538.654,0.0
53855.0,STARLINK-4703,PAYLOAD,2024-04-30 04:22:24,15.08828319,0.0001989,53.2179,99.8039,74.4964,285.6248,0.00021729,3.171e-05,0.0,0 STARLINK-4703,1 53855U 22114AP  24121.18222652  .00003171  00000-0  21729-3 0  9990,2 53855  53.2179  99.8039 0001989  74.4964 285.6248 15.08828319 90003,6917.916,95.438,541.157,538.405,0.0
53855.0,STARLINK-4703,PAYLOAD,2024-04-30 05:57:47,15.08829744,0.0002016,53.2181,99.5069,75.6975,284.4241,0.00022677,3.322e-05,0.0,0 STARLINK-4703,1 53855U 22114AP  24121.24846588  .00003322  00000-0  22677-3 0  9998,2 53855  53.2181  99.5069 0002016  75.6975 284.4241 15.08829744 90556,6917.912,95.438,541.171,538.382,0.0
53855.0,STARLINK-4703,PAYLOAD,2024-04-30 15:30:06,15.08837405,0.0002082,53.2185,97.7228,76.3984,283.724,0.00024144,3.556e-05,0.0,0 STARLINK-4703,1 53855U 22114AP  24121.64590366  .00003556  00000-0  24144-3 0  9992,2 53855  53.2185  97.7228 0002082  76.3984 283.7240 15.08837405 90079,6917.888,95.438,541.194,538.313,0.0
